UNKNOWN                 
1 89251U          24362.52939236  .00016977  00000+0  91909-2 0  9990
2 89251  62.4702  96.0089 2916865  68.4169 320.0499  9.11132374341029
UNKNOWN                 
1 89261U          24355.76729537  .00001707  00000+0  53222-3 0  9992
2 89261  98.1447 359.9523 0013413 158.0736 202.1031 14.42009117482348
UNKNOWN                 
1 89304U          24361.79036126  .00008098  00000+0  24444-1 0  9997
2 89304  84.6063 193.0107 2744697  69.6781 326.9447  8.94852347406892
UNKNOWN                 
1 89314U          24362.22663859  .00020001  00000+0  20744-1 0  9993
2 89314  19.4536 341.5803 7042009 325.0975   4.3715  2.53706559 79774
UNKNOWN                 
1 89349U          24361.29808274  .00000692  00000+0  23982-2 0  9991
2 89349  90.2416 359.4673 0032233 108.1708 252.2926 12.96073838433221
UNKNOWN                 
1 89379U          24362.42731010  .00009566  00000+0  12989-1 0  9996
2 89379 100.4769 346.6426 0047514 271.4186  88.1508 13.58992819533125
UNKNOWN                 
1 89403U          24359.49704248  .00001044  00000+0  35216-2 0  9992
2 89403  90.2410 357.8412 0030666  66.7255  88.1991 12.98334124431982
UNKNOWN                 
1 89484U          24362.15378625  .00016024  00000+0  42513-1 0  9995
2 89484  84.3958 249.0595 2744538 116.7389 273.9685  8.99111788323756
UNKNOWN                 
1 89490U          24362.31141009  .00094106  00000+0  15353-1 0  9993
2 89490  98.4116 311.8757 0053966 139.2933 221.2324 14.69430644431018
UNKNOWN                 
1 89493U          24361.44183683  .00005976  00000+0  30922-2 0  9990
2 89493  99.0520  59.7996 0083772 313.3458  46.0754 14.13503939414260
UNKNOWN                 
1 89494U          24362.61325615  .00005897  00000+0  30524-2 0  9994
2 89494  99.0519  60.9125 0084389 310.1349  49.2451 14.13460017414286
